0 COSMOS 2251 DEB
1 34577U 93036VP  13281.68058190  .00003049  00000-0  79163-3 0  9196
2 34577 074.0413 084.7365 0037655 265.5219 221.7156 14.49725454244184
0 COSMOS 2251 DEB
1 34577U 93036VP  13283.81866828  .00004229  00000-0  10946-2 0  9204
2 34577 074.0411 080.7244 0037687 261.1564 220.3089 14.49745936244495
0 COSMOS 2251 DEB
1 34577U 93036VP  13285.89660035  .00004238  00000-0  10966-2 0  9219
2 34577 074.0411 076.8255 0037721 256.8569 265.1432 14.49758213244792
0 COSMOS 2251 DEB
1 34577U 93036VP  13288.15282432  .00005965  00000-0  15394-2 0  9221
2 34577 074.0414 072.5901 0037778 252.3664 160.4260 14.49777211245128
0 COSMOS 2251 DEB
1 34577U 93036VP  13290.15411303  .00005301  00000-0  13684-2 0  9230
2 34577 074.0419 068.8351 0037803 248.2153 165.5064 14.49792830245410
0 COSMOS 2251 DEB
1 34577U 93036VP  13292.43146248  .00004673  00000-0  12068-2 0  9243
2 34577 074.0426 064.5617 0037774 243.6247 171.4122 14.49814311245742
0 COSMOS 2251 DEB
1 34577U 93036VP  13294.43865603  .00005794  00000-0  14939-2 0  9253
2 34577 074.0429 060.7948 0037805 239.6253 207.4099 14.49829312246030
